STARLINK-36182          
1 67192U 25304A   26004.16668980 -.02077369  00000+0 -33516-1 0  9999
2 67192  69.9996 344.2235 0003416 267.2654  72.1250 15.55868349  4043
STARLINK-36279          
1 67193U 25304B   26004.16668980 -.02075183  00000+0 -33479-1 0  9990
2 67193  69.9996 344.2207 0003403 265.7654  75.5433 15.55866803  4078
STARLINK-36284          
1 67194U 25304C   26004.16668980 -.02072164  00000+0 -33425-1 0  9998
2 67194  69.9998 344.2187 0003341 268.0246  75.1968 15.55867175  4074
STARLINK-36291          
1 67195U 25304D   26004.16668980 -.02046551  00000+0 -32983-1 0  9998
2 67195  69.9999 344.2159 0003330 265.1339  80.0096 15.55850610  4077
STARLINK-36239          
1 67196U 25304E   26004.16668980 -.02078938  00000+0 -33542-1 0  9995
2 67196  69.9996 344.2138 0003565 269.6147  77.4405 15.55868507  4076
STARLINK-36283          
1 67197U 25304F   26004.16668980 -.02064804  00000+0 -33299-1 0  9992
2 67197  69.9999 344.2092 0003295 265.9451  84.9444 15.55862231  4070
STARLINK-36267          
1 67198U 25304G   26004.16668980 -.02077257  00000+0 -33516-1 0  9991
2 67198  69.9998 344.2118 0003524 268.7694  80.2073 15.55865783  4043
STARLINK-36268          
1 67199U 25304H   26004.16668980 -.02061829  00000+0 -33244-1 0  9998
2 67199  69.9998 344.2069 0003438 268.0363  84.7703 15.55860928  4077
STARLINK-36270          
1 67200U 25304J   26004.16668980 -.02103734  00000+0 -33977-1 0  9996
2 67200  70.0000 344.2048 0003647 271.8744  82.8488 15.55878424  4070
STARLINK-36262          
1 67201U 25304K   26004.16668980 -.02096323  00000+0 -33845-1 0  9996
2 67201  69.9997 344.2024 0003582 271.4812  85.1552 15.55877756  4072
STARLINK-36263          
1 67202U 25304L   26004.16668980 -.02104218  00000+0 -33987-1 0  9997
2 67202  69.9998 344.2000 0003539 269.7307  88.8240 15.55879233  4075
STARLINK-36224          
1 67203U 25304M   26004.16668980 -.02110249  00000+0 -34088-1 0  9992
2 67203  69.9997 344.1982 0003689 272.6116  87.8579 15.55883263  4072
