CCSDS_OMM_VERS = 2.0
CREATION_DATE  = 
ORIGINATOR     = 

OBJECT_NAME    = STARLINK-36182
OBJECT_ID      = 2025-304A
CENTER_NAME    = EARTH
REF_FRAME      = TEME
TIME_SYSTEM    = UTC
MEAN_ELEMENT_THEORY = SGP/SGP4

EPOCH          = 2026-01-04T04:00:01.998720
MEAN_MOTION    = 15.55868349
ECCENTRICITY   = .0003416
INCLINATION    = 69.9996
RA_OF_ASC_NODE = 344.2235
ARG_OF_PERICENTER = 267.2654
MEAN_ANOMALY   = 72.1250

EPHEMERIS_TYPE = 0
CLASSIFICATION_TYPE = U
NORAD_CAT_ID   = 67192
ELEMENT_SET_NO = 999
REV_AT_EPOCH   = 404
BSTAR          = -.33516E-1
MEAN_MOTION_DOT = -.2077369E-1
MEAN_MOTION_DDOT = 0

CCSDS_OMM_VERS = 2.0
CREATION_DATE  = 
ORIGINATOR     = 

OBJECT_NAME    = STARLINK-36279
OBJECT_ID      = 2025-304B
CENTER_NAME    = EARTH
REF_FRAME      = TEME
TIME_SYSTEM    = UTC
MEAN_ELEMENT_THEORY = SGP/SGP4

EPOCH          = 2026-01-04T04:00:01.998720
MEAN_MOTION    = 15.55866803
ECCENTRICITY   = .0003403
INCLINATION    = 69.9996
RA_OF_ASC_NODE = 344.2207
ARG_OF_PERICENTER = 265.7654
MEAN_ANOMALY   = 75.5433

EPHEMERIS_TYPE = 0
CLASSIFICATION_TYPE = U
NORAD_CAT_ID   = 67193
ELEMENT_SET_NO = 999
REV_AT_EPOCH   = 407
BSTAR          = -.33479E-1
MEAN_MOTION_DOT = -.2075183E-1
MEAN_MOTION_DDOT = 0

CCSDS_OMM_VERS = 2.0
CREATION_DATE  = 
ORIGINATOR     = 

OBJECT_NAME    = STARLINK-36284
OBJECT_ID      = 2025-304C
CENTER_NAME    = EARTH
REF_FRAME      = TEME
TIME_SYSTEM    = UTC
MEAN_ELEMENT_THEORY = SGP/SGP4

EPOCH          = 2026-01-04T04:00:01.998720
MEAN_MOTION    = 15.55867175
ECCENTRICITY   = .0003341
INCLINATION    = 69.9998
RA_OF_ASC_NODE = 344.2187
ARG_OF_PERICENTER = 268.0246
MEAN_ANOMALY   = 75.1968

EPHEMERIS_TYPE = 0
CLASSIFICATION_TYPE = U
NORAD_CAT_ID   = 67194
ELEMENT_SET_NO = 999
REV_AT_EPOCH   = 407
BSTAR          = -.33425E-1
MEAN_MOTION_DOT = -.2072164E-1
MEAN_MOTION_DDOT = 0

CCSDS_OMM_VERS = 2.0
CREATION_DATE  = 
ORIGINATOR     = 

OBJECT_NAME    = STARLINK-36291
OBJECT_ID      = 2025-304D
CENTER_NAME    = EARTH
REF_FRAME      = TEME
TIME_SYSTEM    = UTC
MEAN_ELEMENT_THEORY = SGP/SGP4

EPOCH          = 2026-01-04T04:00:01.998720
MEAN_MOTION    = 15.55850610
ECCENTRICITY   = .000333
INCLINATION    = 69.9999
RA_OF_ASC_NODE = 344.2159
ARG_OF_PERICENTER = 265.1339
MEAN_ANOMALY   = 80.0096

EPHEMERIS_TYPE = 0
CLASSIFICATION_TYPE = U
NORAD_CAT_ID   = 67195
ELEMENT_SET_NO = 999
REV_AT_EPOCH   = 407
BSTAR          = -.32983E-1
MEAN_MOTION_DOT = -.2046551E-1
MEAN_MOTION_DDOT = 0

CCSDS_OMM_VERS = 2.0
CREATION_DATE  = 
ORIGINATOR     = 

OBJECT_NAME    = STARLINK-36239
OBJECT_ID      = 2025-304E
CENTER_NAME    = EARTH
REF_FRAME      = TEME
TIME_SYSTEM    = UTC
MEAN_ELEMENT_THEORY = SGP/SGP4

EPOCH          = 2026-01-04T04:00:01.998720
MEAN_MOTION    = 15.55868507
ECCENTRICITY   = .0003565
INCLINATION    = 69.9996
RA_OF_ASC_NODE = 344.2138
ARG_OF_PERICENTER = 269.6147
MEAN_ANOMALY   = 77.4405

EPHEMERIS_TYPE = 0
CLASSIFICATION_TYPE = U
NORAD_CAT_ID   = 67196
ELEMENT_SET_NO = 999
REV_AT_EPOCH   = 407
BSTAR          = -.33542E-1
MEAN_MOTION_DOT = -.2078938E-1
MEAN_MOTION_DDOT = 0

CCSDS_OMM_VERS = 2.0
CREATION_DATE  = 
ORIGINATOR     = 

OBJECT_NAME    = STARLINK-36283
OBJECT_ID      = 2025-304F
CENTER_NAME    = EARTH
REF_FRAME      = TEME
TIME_SYSTEM    = UTC
MEAN_ELEMENT_THEORY = SGP/SGP4

EPOCH          = 2026-01-04T04:00:01.998720
MEAN_MOTION    = 15.55862231
ECCENTRICITY   = .0003295
INCLINATION    = 69.9999
RA_OF_ASC_NODE = 344.2092
ARG_OF_PERICENTER = 265.9451
MEAN_ANOMALY   = 84.9444

EPHEMERIS_TYPE = 0
CLASSIFICATION_TYPE = U
NORAD_CAT_ID   = 67197
ELEMENT_SET_NO = 999
REV_AT_EPOCH   = 407
BSTAR          = -.33299E-1
MEAN_MOTION_DOT = -.2064804E-1
MEAN_MOTION_DDOT = 0

CCSDS_OMM_VERS = 2.0
CREATION_DATE  = 
ORIGINATOR     = 

OBJECT_NAME    = STARLINK-36267
OBJECT_ID      = 2025-304G
CENTER_NAME    = EARTH
REF_FRAME      = TEME
TIME_SYSTEM    = UTC
MEAN_ELEMENT_THEORY = SGP/SGP4

EPOCH          = 2026-01-04T04:00:01.998720
MEAN_MOTION    = 15.55865783
ECCENTRICITY   = .0003524
INCLINATION    = 69.9998
RA_OF_ASC_NODE = 344.2118
ARG_OF_PERICENTER = 268.7694
MEAN_ANOMALY   = 80.2073

EPHEMERIS_TYPE = 0
CLASSIFICATION_TYPE = U
NORAD_CAT_ID   = 67198
ELEMENT_SET_NO = 999
REV_AT_EPOCH   = 404
BSTAR          = -.33516E-1
MEAN_MOTION_DOT = -.2077257E-1
MEAN_MOTION_DDOT = 0

CCSDS_OMM_VERS = 2.0
CREATION_DATE  = 
ORIGINATOR     = 

OBJECT_NAME    = STARLINK-36268
OBJECT_ID      = 2025-304H
CENTER_NAME    = EARTH
REF_FRAME      = TEME
TIME_SYSTEM    = UTC
MEAN_ELEMENT_THEORY = SGP/SGP4

EPOCH          = 2026-01-04T04:00:01.998720
MEAN_MOTION    = 15.55860928
ECCENTRICITY   = .0003438
INCLINATION    = 69.9998
RA_OF_ASC_NODE = 344.2069
ARG_OF_PERICENTER = 268.0363
MEAN_ANOMALY   = 84.7703

EPHEMERIS_TYPE = 0
CLASSIFICATION_TYPE = U
NORAD_CAT_ID   = 67199
ELEMENT_SET_NO = 999
REV_AT_EPOCH   = 407
BSTAR          = -.33244E-1
MEAN_MOTION_DOT = -.2061829E-1
MEAN_MOTION_DDOT = 0

CCSDS_OMM_VERS = 2.0
CREATION_DATE  = 
ORIGINATOR     = 

OBJECT_NAME    = STARLINK-36270
OBJECT_ID      = 2025-304J
CENTER_NAME    = EARTH
REF_FRAME      = TEME
TIME_SYSTEM    = UTC
MEAN_ELEMENT_THEORY = SGP/SGP4

EPOCH          = 2026-01-04T04:00:01.998720
MEAN_MOTION    = 15.55878424
ECCENTRICITY   = .0003647
INCLINATION    = 70.0000
RA_OF_ASC_NODE = 344.2048
ARG_OF_PERICENTER = 271.8744
MEAN_ANOMALY   = 82.8488

EPHEMERIS_TYPE = 0
CLASSIFICATION_TYPE = U
NORAD_CAT_ID   = 67200
ELEMENT_SET_NO = 999
REV_AT_EPOCH   = 407
BSTAR          = -.33977E-1
MEAN_MOTION_DOT = -.2103734E-1
MEAN_MOTION_DDOT = 0

CCSDS_OMM_VERS = 2.0
CREATION_DATE  = 
ORIGINATOR     = 

OBJECT_NAME    = STARLINK-36262
OBJECT_ID      = 2025-304K
CENTER_NAME    = EARTH
REF_FRAME      = TEME
TIME_SYSTEM    = UTC
MEAN_ELEMENT_THEORY = SGP/SGP4

EPOCH          = 2026-01-04T04:00:01.998720
MEAN_MOTION    = 15.55877756
ECCENTRICITY   = .0003582
INCLINATION    = 69.9997
RA_OF_ASC_NODE = 344.2024
ARG_OF_PERICENTER = 271.4812
MEAN_ANOMALY   = 85.1552

EPHEMERIS_TYPE = 0
CLASSIFICATION_TYPE = U
NORAD_CAT_ID   = 67201
ELEMENT_SET_NO = 999
REV_AT_EPOCH   = 407
BSTAR          = -.33845E-1
MEAN_MOTION_DOT = -.2096323E-1
MEAN_MOTION_DDOT = 0

CCSDS_OMM_VERS = 2.0
CREATION_DATE  = 
ORIGINATOR     = 

OBJECT_NAME    = STARLINK-36263
OBJECT_ID      = 2025-304L
CENTER_NAME    = EARTH
REF_FRAME      = TEME
TIME_SYSTEM    = UTC
MEAN_ELEMENT_THEORY = SGP/SGP4

EPOCH          = 2026-01-04T04:00:01.998720
MEAN_MOTION    = 15.55879233
ECCENTRICITY   = .0003539
INCLINATION    = 69.9998
RA_OF_ASC_NODE = 344.2000
ARG_OF_PERICENTER = 269.7307
MEAN_ANOMALY   = 88.8240

EPHEMERIS_TYPE = 0
CLASSIFICATION_TYPE = U
NORAD_CAT_ID   = 67202
ELEMENT_SET_NO = 999
REV_AT_EPOCH   = 407
BSTAR          = -.33987E-1
MEAN_MOTION_DOT = -.2104218E-1
MEAN_MOTION_DDOT = 0

CCSDS_OMM_VERS = 2.0
CREATION_DATE  = 
ORIGINATOR     = 

OBJECT_NAME    = STARLINK-36224
OBJECT_ID      = 2025-304M
CENTER_NAME    = EARTH
REF_FRAME      = TEME
TIME_SYSTEM    = UTC
MEAN_ELEMENT_THEORY = SGP/SGP4

EPOCH          = 2026-01-04T04:00:01.998720
MEAN_MOTION    = 15.55883263
ECCENTRICITY   = .0003689
INCLINATION    = 69.9997
RA_OF_ASC_NODE = 344.1982
ARG_OF_PERICENTER = 272.6116
MEAN_ANOMALY   = 87.8579

EPHEMERIS_TYPE = 0
CLASSIFICATION_TYPE = U
NORAD_CAT_ID   = 67203
ELEMENT_SET_NO = 999
REV_AT_EPOCH   = 407
BSTAR          = -.34088E-1
MEAN_MOTION_DOT = -.2110249E-1
MEAN_MOTION_DDOT = 0

